IRIDIUM 106             
1 41917U 17003A   24065.57099939  .00000033  00000+0  45851-5 0  9994
2 41917  86.3909  76.9055 0002557  94.2600 265.8888 14.34217697373722
IRIDIUM 103             
1 41918U 17003B   24065.76761764  .00000036  00000+0  57668-5 0  9990
2 41918  86.3909  76.7253 0001959  97.4989 262.6430 14.34217147373785
IRIDIUM 109             
1 41919U 17003C   24065.77396114  .00000055  00000+0  12716-4 0  9990
2 41919  86.3911  76.7684 0002008  88.1688 271.9737 14.34217833373769
IRIDIUM 102             
1 41920U 17003D   24065.74225019  .00000092  00000+0  25923-4 0  9999
2 41920  86.3909  76.7226 0002128  88.2340 271.9099 14.34218010373825
IRIDIUM 105             
1 41921U 17003E   24065.85252467  .00000499  00000+0  17108-3 0  9995
2 41921  86.3960  45.0792 0002214  88.9658 271.1791 14.34215087375694
IRIDIUM 104             
1 41922U 17003F   24065.54562835  .00000104  00000+0  30043-4 0  9992
2 41922  86.3911  76.8351 0002029  91.3775 268.7653 14.34217541373780
IRIDIUM 114             
1 41923U 17003G   24065.55197139  .00000088  00000+0  24484-4 0  9998
2 41923  86.3910  76.8187 0002516  92.3612 267.7871 14.34217087373785
IRIDIUM 108             
1 41924U 17003H   24065.44071914  .00000490  00000+0  16773-3 0  9997
2 41924  86.3953  45.1827 0002488  90.0185 270.1296 14.34219570375602
